*******************************************************************************
Ephemeris / WWW_USER Mon Mar 24 08:52:08 2025 Pasadena, USA      / Horizons    
*******************************************************************************
Target body name: (2018 PU7)                      {source: JPL#13}
Center body name: Earth (399)                     {source: DE441}
Center-site name: Mauna Kea
*******************************************************************************
Start time      : A.D. 2018-Sep-13 04:36:00.0000 UT      
Stop  time      : A.D. 2018-Sep-13 15:59:00.0000 UT      
Step-size       : 1 minutes
*******************************************************************************
Target pole/equ : undefined
Target radii    : undefined                                                    
Center geodetic : 204.5278, 19.8260847, 4.21024   {E-lon(deg),Lat(deg),Alt(km)}
Center cylindric: 204.5278, 6006.35451, 2151.0229 {E-lon(deg),Dxy(km),Dz(km)}
Center pole/equ : ITRF93                          {East-longitude positive}
Center radii    : 6378.137, 6378.137, 6356.752 km {Equator_a, b, pole_c}       
Target primary  : Sun
Vis. interferer : MOON (R_eq= 1737.400) km        {source: DE441}
Rel. light bend : Sun                             {source: DE441}
Rel. lght bnd GM: 1.3271E+11 km^3/s^2                                          
Small-body perts: Yes                             {source: SB441-N16}
Atmos refraction: NO (AIRLESS)
RA format       : HMS
Time format     : CAL 
Calendar mode   : Mixed Julian/Gregorian
RTS-only print  : NO       
EOP file        : eop.250321.p250617                                           
EOP coverage    : DATA-BASED 1962-JAN-20 TO 2025-MAR-21. PREDICTS-> 2025-JUN-16
Units conversion: 1 au= 149597870.700 km, c= 299792.458 km/s, 1 day= 86400.0 s 
Table cut-offs 1: Elevation (-90.0deg=NO ),Airmass (>38.000=NO), Daylight (YES)
Table cut-offs 2: Solar elongation (  0.0,180.0=NO ),Local Hour Angle( 0.0=NO )
Table cut-offs 3: RA/DEC angular rate (     0.0=NO )                           
*******************************************************************************
Initial IAU76/J2000 heliocentric ecliptic osculating elements (au, days, deg.):
  EPOCH=  2458344.5 ! 2018-Aug-14.00 (TDB)         Residual RMS= .35253        
   EC= .5418411610879256   QR= .9908981152950816   TP= 2458306.0483912583      
   OM= 307.3200871504195   W=  329.2166965634538   IN= 6.906215163822786       
  Equivalent ICRF heliocentric cartesian coordinates (au, au/d):
   X= 8.533350742151261E-01  Y=-6.504796009993946E-01  Z=-2.480927258064065E-01
  VX= 1.615085148536055E-02 VY= 9.661045842052620E-03 VZ= 6.810490395822813E-03
Asteroid physical parameters (km, seconds, rotational period in hours):        
   GM= n.a.                RAD= n.a.               ROTPER= n.a.                
   H= 23.4                 G= .150                 B-V= n.a.                   
                           ALBEDO= n.a.            STYP= n.a.                  
*******************************************************************************
 Date__(UT)__HR:MN     R.A._________(ICRF)_________DEC
******************************************************
$$SOE
 2018-Sep-13 08:42     22 00 13.939710 +07 53 06.03102
 2018-Sep-13 08:43     22 00 13.969100 +07 53 05.90141
 2018-Sep-13 08:44     22 00 13.998488 +07 53 05.77172
 2018-Sep-13 08:45     22 00 14.027874 +07 53 05.64195
 2018-Sep-13 08:46     22 00 14.057259 +07 53 05.51211
 2018-Sep-13 08:47     22 00 14.086643 +07 53 05.38220
 2018-Sep-13 08:48     22 00 14.116027 +07 53 05.25220
 2018-Sep-13 08:49     22 00 14.145409 +07 53 05.12213
 2018-Sep-13 08:50     22 00 14.174791 +07 53 04.99199
 2018-Sep-13 08:51     22 00 14.204172 +07 53 04.86177
 2018-Sep-13 08:52     22 00 14.233553 +07 53 04.73147
 2018-Sep-13 08:53     22 00 14.262934 +07 53 04.60109
 2018-Sep-13 08:54  t  22 00 14.292315 +07 53 04.47064
 2018-Sep-13 08:55     22 00 14.321696 +07 53 04.34012
 2018-Sep-13 08:56     22 00 14.351077 +07 53 04.20952
 2018-Sep-13 08:57     22 00 14.380459 +07 53 04.07884
 2018-Sep-13 08:58     22 00 14.409841 +07 53 03.94808
 2018-Sep-13 08:59     22 00 14.439224 +07 53 03.81725
 2018-Sep-13 09:00     22 00 14.468608 +07 53 03.68635
 2018-Sep-13 09:01     22 00 14.497993 +07 53 03.55536
 2018-Sep-13 09:02     22 00 14.527379 +07 53 03.42430
 2018-Sep-13 09:03     22 00 14.556766 +07 53 03.29317
 2018-Sep-13 09:04     22 00 14.586155 +07 53 03.16196
 2018-Sep-13 09:05     22 00 14.615546 +07 53 03.03067
 2018-Sep-13 09:06     22 00 14.644938 +07 53 02.89931
 2018-Sep-13 09:07     22 00 14.674332 +07 53 02.76787
 2018-Sep-13 09:08     22 00 14.703729 +07 53 02.63636
 2018-Sep-13 09:09     22 00 14.733127 +07 53 02.50476
 2018-Sep-13 09:10     22 00 14.762528 +07 53 02.37310
 2018-Sep-13 09:11     22 00 14.791932 +07 53 02.24135
 2018-Sep-13 09:12     22 00 14.821338 +07 53 02.10954
 2018-Sep-13 09:13     22 00 14.850747 +07 53 01.97764
 2018-Sep-13 09:14     22 00 14.880159 +07 53 01.84567
 2018-Sep-13 09:15     22 00 14.909575 +07 53 01.71363
 2018-Sep-13 09:16     22 00 14.938993 +07 53 01.58150
 2018-Sep-13 09:17     22 00 14.968415 +07 53 01.44931
 2018-Sep-13 09:18     22 00 14.997841 +07 53 01.31703
 2018-Sep-13 09:19     22 00 15.027270 +07 53 01.18469
 2018-Sep-13 09:20     22 00 15.056703 +07 53 01.05226
 2018-Sep-13 09:21     22 00 15.086141 +07 53 00.91976
 2018-Sep-13 09:22     22 00 15.115582 +07 53 00.78719
 2018-Sep-13 09:23     22 00 15.145028 +07 53 00.65453
 2018-Sep-13 09:24     22 00 15.174478 +07 53 00.52181
 2018-Sep-13 09:25     22 00 15.203933 +07 53 00.38901
 2018-Sep-13 09:26     22 00 15.233393 +07 53 00.25613
 2018-Sep-13 09:27     22 00 15.262858 +07 53 00.12318
 2018-Sep-13 09:28     22 00 15.292327 +07 52 59.99015
 2018-Sep-13 09:29     22 00 15.321802 +07 52 59.85705
 2018-Sep-13 09:30     22 00 15.351283 +07 52 59.72387
 2018-Sep-13 09:31     22 00 15.380769 +07 52 59.59062
 2018-Sep-13 09:32     22 00 15.410260 +07 52 59.45729
 2018-Sep-13 09:33     22 00 15.439758 +07 52 59.32388
 2018-Sep-13 09:34     22 00 15.469261 +07 52 59.19041
 2018-Sep-13 09:35     22 00 15.498771 +07 52 59.05685
 2018-Sep-13 09:36     22 00 15.528287 +07 52 58.92323
 2018-Sep-13 09:37     22 00 15.557809 +07 52 58.78952
 2018-Sep-13 09:38     22 00 15.587338 +07 52 58.65575
 2018-Sep-13 09:39     22 00 15.616874 +07 52 58.52189
 2018-Sep-13 09:40     22 00 15.646416 +07 52 58.38797
 2018-Sep-13 09:41     22 00 15.675966 +07 52 58.25397
 2018-Sep-13 09:42     22 00 15.705522 +07 52 58.11989
 2018-Sep-13 09:43     22 00 15.735086 +07 52 57.98574
 2018-Sep-13 09:44     22 00 15.764658 +07 52 57.85152
 2018-Sep-13 09:45     22 00 15.794237 +07 52 57.71722
 2018-Sep-13 09:46     22 00 15.823824 +07 52 57.58284
 2018-Sep-13 09:47     22 00 15.853419 +07 52 57.44840
 2018-Sep-13 09:48     22 00 15.883021 +07 52 57.31388
 2018-Sep-13 09:49     22 00 15.912632 +07 52 57.17928
 2018-Sep-13 09:50     22 00 15.942252 +07 52 57.04461
 2018-Sep-13 09:51     22 00 15.971880 +07 52 56.90987
 2018-Sep-13 09:52     22 00 16.001516 +07 52 56.77506
 2018-Sep-13 09:53     22 00 16.031161 +07 52 56.64017
 2018-Sep-13 09:54     22 00 16.060815 +07 52 56.50520
 2018-Sep-13 09:55     22 00 16.090479 +07 52 56.37017
 2018-Sep-13 09:56     22 00 16.120151 +07 52 56.23506
 2018-Sep-13 09:57     22 00 16.149833 +07 52 56.09987
 2018-Sep-13 09:58     22 00 16.179524 +07 52 55.96462
 2018-Sep-13 09:59     22 00 16.209225 +07 52 55.82929
 2018-Sep-13 10:00     22 00 16.238936 +07 52 55.69388
 2018-Sep-13 10:01     22 00 16.268657 +07 52 55.55841
 2018-Sep-13 10:02     22 00 16.298388 +07 52 55.42286
 2018-Sep-13 10:03     22 00 16.328129 +07 52 55.28724
 2018-Sep-13 10:04     22 00 16.357880 +07 52 55.15154
 2018-Sep-13 10:05     22 00 16.387642 +07 52 55.01578
 2018-Sep-13 10:06     22 00 16.417415 +07 52 54.87994
 2018-Sep-13 10:07     22 00 16.447198 +07 52 54.74403
 2018-Sep-13 10:08     22 00 16.476992 +07 52 54.60804
 2018-Sep-13 10:09     22 00 16.506798 +07 52 54.47199
 2018-Sep-13 10:10     22 00 16.536614 +07 52 54.33586
 2018-Sep-13 10:11     22 00 16.566442 +07 52 54.19966
 2018-Sep-13 10:12     22 00 16.596282 +07 52 54.06339
 2018-Sep-13 10:13     22 00 16.626133 +07 52 53.92705
 2018-Sep-13 10:14     22 00 16.655996 +07 52 53.79063
 2018-Sep-13 10:15     22 00 16.685871 +07 52 53.65415
 2018-Sep-13 10:16     22 00 16.715758 +07 52 53.51759
 2018-Sep-13 10:17     22 00 16.745657 +07 52 53.38096
 2018-Sep-13 10:18     22 00 16.775569 +07 52 53.24426
 2018-Sep-13 10:19     22 00 16.805493 +07 52 53.10749
 2018-Sep-13 10:20     22 00 16.835430 +07 52 52.97064
 2018-Sep-13 10:21     22 00 16.865379 +07 52 52.83373
 2018-Sep-13 10:22     22 00 16.895342 +07 52 52.69675
 2018-Sep-13 10:23     22 00 16.925317 +07 52 52.55969
 2018-Sep-13 10:24     22 00 16.955306 +07 52 52.42257
 2018-Sep-13 10:25     22 00 16.985308 +07 52 52.28537
 2018-Sep-13 10:26     22 00 17.015323 +07 52 52.14811
 2018-Sep-13 10:27     22 00 17.045352 +07 52 52.01077
 2018-Sep-13 10:28     22 00 17.075395 +07 52 51.87337
 2018-Sep-13 10:29     22 00 17.105452 +07 52 51.73589
 2018-Sep-13 10:30     22 00 17.135523 +07 52 51.59835
 2018-Sep-13 10:31     22 00 17.165608 +07 52 51.46073
 2018-Sep-13 10:32     22 00 17.195707 +07 52 51.32305
 2018-Sep-13 10:33     22 00 17.225820 +07 52 51.18529
 2018-Sep-13 10:34     22 00 17.255949 +07 52 51.04747
 2018-Sep-13 10:35     22 00 17.286092 +07 52 50.90958
 2018-Sep-13 10:36     22 00 17.316249 +07 52 50.77162
 2018-Sep-13 10:37     22 00 17.346422 +07 52 50.63359
 2018-Sep-13 10:38     22 00 17.376610 +07 52 50.49549
 2018-Sep-13 10:39     22 00 17.406813 +07 52 50.35733
 2018-Sep-13 10:40     22 00 17.437031 +07 52 50.21909
 2018-Sep-13 10:41     22 00 17.467265 +07 52 50.08079
 2018-Sep-13 10:42     22 00 17.497515 +07 52 49.94242
 2018-Sep-13 10:43     22 00 17.527781 +07 52 49.80398
 2018-Sep-13 10:44     22 00 17.558062 +07 52 49.66547
